EYESAT A (AO-27)        
1 22825U 93061C   26165.41269183  .00000087  00000+0  50043-4 0  9992
2 22825  98.6881 232.8272 0009514 106.8883 253.3343 14.30941559706603
ITAMSAT (IO-26)         
1 22826U 93061D   26165.46283505  .00000084  00000+0  48466-4 0  9995
2 22826  98.6828 232.7945 0010097  92.1193 268.1146 14.31368412706922
RADIO ROSTO (RS15)      
1 23439U 94085A   26165.54399749 -.00000052  00000+0 -26062-3 0  9994
2 23439  64.8180 307.4910 0155869   4.3656 355.8588 11.27583509295607
JAS-2 (FO-29)           
1 24278U 96046B   26165.57553768  .00000018  00000+0  51039-4 0  9994
2 24278  98.5241  14.8055 0350870 103.1913 260.8616 13.53274188472811
FORTE                   
1 24920U 97047A   26165.01265952  .00000145  00000+0  81794-4 0  9996
2 24920  69.9540  21.1920 0024599 281.2336  78.6022 14.27944061498230
TECHSAT 1B (GO-32)      
1 25397U 98043D   26165.53564160  .00000043  00000+0  38754-4 0  9997
2 25397  99.0066 158.2273 0000913 168.5356 191.5843 14.24427952450957
ISS (ZARYA)             
1 25544U 98067A   26165.48029322  .00008443  00000+0  15998-3 0  9993
2 25544  51.6335 313.4905 0004925 185.2578 174.8360 15.49225904571335
IMAGE                   
1 26113U 00017A   26162.34581823  .00000011  00000+0  22926-1 0  9995
2 26113  94.2241 315.2958 7436383 288.4674   8.8959  1.68665984161407
CLUSTER II-FM7 (SAMBA)  
1 26410U 00041A   26168.13893489  .00013374  00000+0  00000+0 0  9992
2 26410 149.9162  50.9861 9054057 268.1289 359.6411  0.44866443 20305
CLUSTER II-FM8 (TANGO)  
1 26464U 00045B   26163.93604630  .00006612  00000+0  00000+0 0  9993
2 26464 150.1471  51.3037 9053900 268.2440   3.0100  0.44405929 20298
ODIN                    
1 26702U 01007A   26165.49014216  .00172083  00000+0  11407-2 0  9997
2 26702  97.3842 206.2610 0006746 145.7949 214.3752 15.74977576388978
OMNI-M1                 
1 26857U 01026A   26165.17069898  .00000005  00000+0  00000+0 0  9998
2 26857  44.8314 245.9594 0014163  52.8796 307.3086  3.92401509205450
PCSAT (NO-44)           
1 26931U 01043C   26165.57503500  .00000097  00000+0  66993-4 0  9996
2 26931  67.0507 251.0280 0006071 264.5660  95.4750 14.31955265290078
PROBA-1                 
1 26958U 01049B   26165.61434318  .00001939  00000+0  12789-3 0  9995
2 26958  97.9598 174.0567 0056228 130.3752 230.2403 15.07487324343233
SAUDISAT 1C (SO-50)     
1 27607U 02058C   26165.32313440  .00000923  00000+0  12619-3 0  9992
2 27607  64.5509 137.8468 0075333 263.0043  96.2490 14.83041320264030
CORIOLIS                
1 27640U 03001A   26165.58997341  .00000077  00000+0  56776-4 0  9997
2 27640  98.7125 172.5144 0013228 216.6788 143.3484 14.19944124213856
CUTE-1 (CO-55)          
1 27844U 03031E   26165.50824594  .00000252  00000+0  12810-3 0  9992
2 27844  98.6736 174.1008 0009350 185.7557 174.3516 14.24334231191298
CUBESAT XI-IV (CO-57)   
1 27848U 03031J   26165.28450992  .00000215  00000+0  11362-3 0  9998
2 27848  98.6766 173.5948 0008829 205.9293 154.1445 14.23619426190964
MOZHAETS 4 (RS22)       
1 27939U 03042A   26165.63685157  .00001104  00000+0  17832-3 0  9999
2 27939  98.3464 349.9238 0009977 278.9348 169.9978 14.73464228215173
